OBJECT_NAME,OBJECT_ID,EPOCH,MEAN_MOTION,ECCENTRICITY,INCLINATION,RA_OF_ASC_NODE,ARG_OF_PERICENTER,MEAN_ANOMALY,EPHEMERIS_TYPE,CLASSIFICATION_TYPE,NORAD_CAT_ID,ELEMENT_SET_NO,REV_AT_EPOCH,BSTAR,MEAN_MOTION_DOT,MEAN_MOTION_DDOT
IRIDIUM 154,2018-061F,2026-06-06T23:24:54.451008,14.34217708,.0002038,86.3968,61.0761,86.3871,273.7558,0,U,43574,999,41194,.20073679E-4,.76E-6,0
IRIDIUM 163,2018-061G,2026-06-07T00:37:57.781344,14.34220570,.00023277,86.3965,60.9705,83.7992,276.3469,0,U,43575,999,41192,.18575061E-4,.72E-6,0
IRIDIUM 156,2018-061H,2026-06-06T20:40:30.423072,14.34218882,.00021428,86.3965,61.0467,80.8029,279.3409,0,U,43576,999,41189,.83528617E-4,.254E-5,0
IRIDIUM 164,2018-061J,2026-06-06T23:34:02.396352,14.34217077,.0002063,86.3966,61.0365,87.8899,272.2533,0,U,43577,999,41195,.37676231E-4,.125E-5,0
IRIDIUM 159,2018-061K,2026-06-07T00:28:50.414880,14.34218966,.00023141,86.3966,60.9577,85.6343,274.5117,0,U,43578,999,41192,.82272198E-4,.25E-5,0
IRIDIUM 180,2019-002A,2026-06-07T07:09:58.917312,14.34218057,.00022574,86.3973,357.7326,89.4746,270.6709,0,U,43922,999,38757,.13662345E-4,.58E-6,0
IRIDIUM 176,2019-002B,2026-06-06T14:58:33.053088,14.72252866,.00021999,86.6095,357.9594,90.4585,269.6885,0,U,43923,999,39769,.12364488E-3,.804E-5,0
IRIDIUM 168,2019-002C,2026-06-06T19:17:34.964160,14.34217549,.00021005,86.3971,358.0163,89.9178,270.2259,0,U,43924,999,38748,.1265994E-5,.23E-6,0
IRIDIUM 173,2019-002D,2026-06-07T06:42:34.811712,14.34217471,.00022632,86.3975,357.7066,87.3328,272.8127,0,U,43925,999,38753,.58464603E-4,.184E-5,0
IRIDIUM 169,2019-002E,2026-06-06T16:18:51.634656,14.38609634,.00022162,86.4236,29.5864,70.9762,289.1676,0,U,43926,999,38871,.84150461E-4,.277E-5,0
IRIDIUM 172,2019-002F,2026-06-06T18:50:10.951008,14.34217834,.00022709,86.3973,357.9214,89.0585,271.0871,0,U,43927,999,38747,.10429373E-4,.49E-6,0
IRIDIUM 175,2019-002G,2026-06-07T02:04:36.801120,14.43607062,.0001233,86.4506,294.7441,224.3030,135.8072,0,U,43928,999,39752,.953643E-4,.343E-5,0
IRIDIUM 171,2019-002H,2026-06-07T06:06:02.937888,14.34217574,.00020162,86.3984,358.0305,87.2383,272.9043,0,U,43929,999,38753,-.203685E-6,.19E-6,0
IRIDIUM 170,2019-002J,2026-06-06T20:01:04.613952,14.72252497,.00023666,86.6093,357.8739,87.1284,273.0204,0,U,43930,999,39773,.32902803E-4,.232E-5,0
IRIDIUM 167,2019-002K,2026-06-06T14:52:42.887712,14.34217590,.0001879,86.3974,358.0127,85.4951,274.6459,0,U,43931,999,38744,-.2143473E-5,.14E-6,0
IRIDIUM 181,2023-068S,2026-06-06T10:18:48.891456,14.43308993,.00022693,86.4503,61.2868,89.9643,270.1818,0,U,56726,999,16088,.10689608E-3,.38E-5,0
IRIDIUM 177,2023-068T,2026-06-06T18:38:25.914912,14.80221466,.00024727,86.1959,333.7375,86.8854,273.2650,0,U,56727,999,16482,.16077144E-3,.1248E-4,0
IRIDIUM 174,2023-068U,2026-06-06T13:11:46.631328,14.72254363,.00025991,86.6103,358.1398,87.7998,272.3516,0,U,56728,999,16445,.52598729E-4,.356E-5,0
IRIDIUM 178,2023-068V,2026-06-06T15:08:02.851584,14.80248933,.00024916,86.6546,29.7721,88.5001,271.6506,0,U,56729,999,16480,.13391702E-3,.1044E-4,0
IRIDIUM 179,2023-068W,2026-06-06T15:00:22.638528,14.80232238,.00024047,86.6789,38.7229,87.2430,272.9067,0,U,56730,999,16480,.12962128E-3,.1011E-4,0
